[{"OBJECT_NAME":"STARLINK-3703","OBJECT_ID":"2022-029P","EPOCH":"2026-03-09T08:12:38.123424","MEAN_MOTION":15.08838814,"ECCENTRICITY":0.00013285,"INCLINATION":53.2165,"RA_OF_ASC_NODE":90.872,"ARG_OF_PERICENTER":105.2571,"MEAN_ANOMALY":254.8568,"EPHEMERIS_TYPE":0,"CLASSIFICATION_TYPE":"U","NORAD_CAT_ID":52101,"ELEMENT_SET_NO":999,"REV_AT_EPOCH":22059,"BSTAR":-3.259434e-5,"MEAN_MOTION_DOT":-8.07e-6,"MEAN_MOTION_DDOT":0},{"OBJECT_NAME":"CZ-4C R\/B","OBJECT_ID":"2021-026B","EPOCH":"2026-03-09T16:37:41.696544","MEAN_MOTION":15.16445633,"ECCENTRICITY":0.00393855,"INCLINATION":97.7468,"RA_OF_ASC_NODE":117.371,"ARG_OF_PERICENTER":22.5612,"MEAN_ANOMALY":337.7341,"EPHEMERIS_TYPE":0,"CLASSIFICATION_TYPE":"U","NORAD_CAT_ID":48080,"ELEMENT_SET_NO":999,"REV_AT_EPOCH":27175,"BSTAR":0.00026802982,"MEAN_MOTION_DOT":5.244e-5,"MEAN_MOTION_DDOT":0}]
